OBJECT_NAME,OBJECT_ID,EPOCH,MEAN_MOTION,ECCENTRICITY,INCLINATION,RA_OF_ASC_NODE,ARG_OF_PERICENTER,MEAN_ANOMALY,EPHEMERIS_TYPE,CLASSIFICATION_TYPE,NORAD_CAT_ID,ELEMENT_SET_NO,REV_AT_EPOCH,BSTAR,MEAN_MOTION_DOT,MEAN_MOTION_DDOT
GSAT-17,2017-040B,2026-06-13T14:35:15.380160,1.00271049,.00021521,0.0164,309.9007,358.9928,265.3413,0,U,42815,999,3275,0,-.247E-5,0
INTELSAT 35E (IS-35E),2017-041A,2026-06-13T11:16:42.222432,1.00268650,.00015344,0.0254,359.8275,79.0863,317.5585,0,U,42818,999,3277,0,0,0
COSMOS 2520,2017-046A,2026-06-13T11:39:17.667360,1.00272902,.00010579,0.0477,86.2734,51.5599,343.7966,0,U,42907,999,3236,0,.148E-5,0
TDRS 13,2017-047A,2026-06-13T14:48:38.431872,1.00271409,.00144243,3.4507,2.6414,106.2592,3.7526,0,U,42915,999,3231,0,-.91E-6,0
QZS-3 (MICHIBIKI-3),2017-048A,2026-06-13T15:28:02.726400,1.00264711,.00024271,0.0253,168.6156,282.9404,169.3689,0,U,42917,999,3222,0,0,0
AMAZONAS 5,2017-053A,2026-06-13T12:51:49.257792,1.00270603,.00021908,0.0341,321.6774,65.3656,6.7678,0,U,42934,999,3200,0,-.271E-5,0
ASIASAT 9,2017-057A,2026-06-13T15:26:40.357824,1.00263936,.00024905,0.0405,45.3312,28.0237,182.4186,0,U,42942,999,3182,0,0,0
INTELSAT 37E (IS-37E),2017-059A,2026-06-13T08:47:38.789088,1.00272722,.00023484,0.0162,54.0390,46.2870,275.2787,0,U,42950,999,3202,0,-.128E-5,0
BSAT-4A,2017-059B,2026-06-13T15:52:55.583616,1.00269929,.00039089,0.0422,24.6860,42.3142,183.0347,0,U,42951,999,3176,0,-.339E-5,0
QZS-4 (MICHIBIKI-4),2017-062A,2026-06-13T08:38:10.353984,1.00251407,.07452562,40.1102,343.5314,271.6868,273.2941,0,U,42965,999,3176,0,-.329E-5,0
SES-11 (ECHOSTAR 105),2017-063A,2026-06-13T14:21:52.814880,1.00270702,.00027462,0.0219,319.6438,108.3178,304.4796,0,U,42967,999,3168,0,-.78E-6,0
KOREASAT 5A,2017-067A,2026-06-13T15:24:03.108960,1.00272627,.00005705,0.0115,346.0657,99.3916,160.6582,0,U,42984,999,3149,0,-.347E-5,0
ALCOMSAT 1,2017-078A,2026-06-13T11:19:26.957856,1.00271318,.00021265,0.0470,77.0848,0.4479,329.3319,0,U,43039,999,3125,0,-.174E-5,0
SBIRS GEO-3 (USA 282),2018-009A,2026-06-13T14:06:24.298272,1.00271451,.00018225,2.1814,11.9205,64.6443,237.5392,0,U,43162,999,3080,0,.137E-5,0
AL YAH 3,2018-012A,2026-06-13T09:38:04.518816,1.00270261,.00038776,1.5418,83.1510,358.6956,304.2869,0,U,43174,999,3080,0,-.145E-5,0
SES-14,2018-012B,2026-06-13T12:55:33.898656,1.00271306,.00007981,0.0174,20.7643,65.0103,322.4690,0,U,43175,999,698,0,-.267E-5,0
GOES 17,2018-022A,2026-06-13T12:43:42.536352,1.00270307,.00004149,0.9277,85.7717,32.1494,245.3562,0,U,43226,999,3038,0,-.172E-5,0
HISPASAT 30W-6,2018-023A,2026-06-13T09:35:19.781664,1.00272185,.00057966,0.0433,38.5931,30.2456,306.7121,0,U,43228,999,3036,0,-.204E-5,0
SUPERBIRD-B3,2018-033A,2026-06-13T12:12:42.276960,1.00270351,.00011743,0.0157,342.8597,130.3344,133.7981,0,U,43271,999,3002,0,-.81E-6,0
HYLAS 4,2018-033B,2026-06-13T11:16:57.198144,1.00273768,.00009009,0.0145,28.5548,64.5338,304.4474,0,U,43272,999,3002,0,-.222E-5,0
IRNSS-1I,2018-035A,2026-06-12T23:27:14.766336,1.00271228,.00179436,28.7447,74.2620,181.4683,52.2315,0,U,43286,999,3003,0,.73E-6,0
USA 283,2018-036A,2026-06-10T10:28:38.701920,1.00269147,.000013,0.0149,323.1993,214.6638,12.1871,0,U,43339,999,2522,0,0,0
COSMOS 2526,2018-037A,2026-06-12T18:56:24.623232,1.00272487,.000042,0.0301,77.1235,89.9053,146.2573,0,U,43432,999,2991,0,-.33E-5,0
APSTAR-6C,2018-041A,2026-06-13T13:38:38.648832,1.00270458,.0001044,0.0232,353.3215,349.2833,257.9538,0,U,43450,999,2977,0,-.306E-5,0
BANGABANDHUSAT-1,2018-044A,2026-06-13T15:25:47.940672,1.00271635,.00016388,0.0157,30.5231,48.0492,173.9354,0,U,43463,999,2967,0,-.351E-5,0
SES-12,2018-049A,2026-06-13T15:40:45.380928,1.00268546,.00008775,0.0202,26.3475,254.8181,310.9940,0,U,43488,999,2938,0,-.258E-5,0
FENGYUN 2H,2018-050A,2026-06-13T15:14:31.871904,1.00269974,.00018968,3.0207,79.1197,134.7600,356.1279,0,U,43491,999,2940,0,-.121E-5,0
BEIDOU-2 IGSO-7,2018-057A,2026-06-13T14:31:18.615648,1.00252108,.01048981,55.1943,163.0896,237.9333,188.9568,0,U,43539,999,2909,0,.12E-6,0
TELSTAR 19V,2018-059A,2026-06-13T12:51:11.818080,1.00269282,.00022803,0.0196,160.7629,302.4292,288.4543,0,U,43562,999,2910,0,-.268E-5,0
TELKOM 4 (MERAH PUTIH),2018-064A,2026-06-13T15:25:22.493280,1.00271010,.00012289,0.0155,35.9148,75.9621,129.4219,0,U,43587,999,2884,0,-.333E-5,0
TELSTAR 18V,2018-069A,2026-06-13T13:48:31.701024,1.00268553,.00015857,0.0145,316.3524,124.7152,165.9453,0,U,43611,999,2860,0,-.283E-5,0
