GSAT-17                 
1 42815U 17040B   26164.60781690 -.00000247  00000+0  00000+0 0  9990
2 42815   0.0164 309.9007 0002152 358.9928 265.3413  1.00271049 32750
INTELSAT 35E (IS-35E)   
1 42818U 17041A   26164.46993313  .00000000  00000+0  00000+0 0  9991
2 42818   0.0254 359.8275 0001534  79.0863 317.5585  1.00268650 32772
COSMOS 2520             
1 42907U 17046A   26164.48562115  .00000148  00000+0  00000+0 0  9992
2 42907   0.0477  86.2734 0001057  51.5599 343.7966  1.00272902 32364
TDRS 13                 
1 42915U 17047A   26164.61711148 -.00000091  00000+0  00000+0 0  9997
2 42915   3.4507   2.6414 0014424 106.2592   3.7526  1.00271409 32315
QZS-3 (MICHIBIKI-3)     
1 42917U 17048A   26164.64447600  .00000000  00000+0  00000+0 0  9991
2 42917   0.0253 168.6156 0002427 282.9404 169.3689  1.00264711 32225
AMAZONAS 5              
1 42934U 17053A   26164.53598678 -.00000271  00000+0  00000+0 0  9997
2 42934   0.0341 321.6774 0002190  65.3656   6.7678  1.00270603 32003
ASIASAT 9               
1 42942U 17057A   26164.64352266  .00000000  00000+0  00000+0 0  9992
2 42942   0.0405  45.3312 0002490  28.0237 182.4186  1.00263936 31821
INTELSAT 37E (IS-37E)   
1 42950U 17059A   26164.36642117 -.00000128  00000+0  00000+0 0  9991
2 42950   0.0162  54.0390 0002348  46.2870 275.2787  1.00272722 32024
BSAT-4A                 
1 42951U 17059B   26164.66175444 -.00000339  00000+0  00000+0 0  9993
2 42951   0.0422  24.6860 0003908  42.3142 183.0347  1.00269929 31764
QZS-4 (MICHIBIKI-4)     
1 42965U 17062A   26164.35984206 -.00000329  00000+0  00000+0 0  9991
2 42965  40.1102 343.5314 0745256 271.6868 273.2941  1.00251407 31761
SES-11 (ECHOSTAR 105)   
1 42967U 17063A   26164.59852795 -.00000078  00000+0  00000+0 0  9998
2 42967   0.0219 319.6438 0002746 108.3178 304.4796  1.00270702 31683
KOREASAT 5A             
1 42984U 17067A   26164.64170265 -.00000347  00000+0  00000+0 0  9991
2 42984   0.0115 346.0657 0000570  99.3916 160.6582  1.00272627 31498
ALCOMSAT 1              
1 43039U 17078A   26164.47183979 -.00000174  00000+0  00000+0 0  9990
2 43039   0.0470  77.0848 0002126   0.4479 329.3319  1.00271318 31255
SBIRS GEO-3 (USA 282)   
1 43162U 18009A   26164.58778123  .00000137  00000+0  00000+0 0  9993
2 43162   2.1814  11.9205 0001822  64.6443 237.5392  1.00271451 30805
AL YAH 3                
1 43174U 18012A   26164.40144119 -.00000145  00000+0  00000+0 0  9993
2 43174   1.5418  83.1510 0003877 358.6956 304.2869  1.00270261 30807
SES-14                  
1 43175U 18012B   26164.53858679 -.00000267  00000+0  00000+0 0  9996
2 43175   0.0174  20.7643 0000798  65.0103 322.4690  1.00271306  6984
GOES 17                 
1 43226U 18022A   26164.53035343 -.00000172  00000+0  00000+0 0  9994
2 43226   0.9277  85.7717 0000414  32.1494 245.3562  1.00270307 30382
HISPASAT 30W-6          
1 43228U 18023A   26164.39953451 -.00000204  00000+0  00000+0 0  9996
2 43228   0.0433  38.5931 0005796  30.2456 306.7121  1.00272185 30365
SUPERBIRD-B3            
1 43271U 18033A   26164.50882265 -.00000081  00000+0  00000+0 0  9995
2 43271   0.0157 342.8597 0001174 130.3344 133.7981  1.00270351 30027
HYLAS 4                 
1 43272U 18033B   26164.47010646 -.00000222  00000+0  00000+0 0  9995
2 43272   0.0145  28.5548 0000900  64.5338 304.4474  1.00273768 30025
IRNSS-1I                
1 43286U 18035A   26163.97725424  .00000073  00000+0  00000+0 0  9996
2 43286  28.7447  74.2620 0017943 181.4683  52.2315  1.00271228 30030
USA 283                 
1 43339U 18036A   26161.43655905  .00000000  00000+0  00000+0 0  9991
2 43339   0.0149 323.1993 0000130 214.6638  12.1871  1.00269147 25223
COSMOS 2526             
1 43432U 18037A   26163.78917388 -.00000330  00000+0  00000+0 0  9999
2 43432   0.0301  77.1235 0000420  89.9053 146.2573  1.00272487 29917
APSTAR-6C               
1 43450U 18041A   26164.56850288 -.00000306  00000+0  00000+0 0  9999
2 43450   0.0232 353.3215 0001044 349.2833 257.9538  1.00270458 29779
BANGABANDHUSAT-1        
1 43463U 18044A   26164.64291598 -.00000351  00000+0  00000+0 0  9998
2 43463   0.0157  30.5231 0001638  48.0492 173.9354  1.00271635 29675
SES-12                  
1 43488U 18049A   26164.65330302 -.00000258  00000+0  00000+0 0  9994
2 43488   0.0202  26.3475 0000877 254.8181 310.9940  1.00268546 29381
FENGYUN 2H              
1 43491U 18050A   26164.63509111 -.00000121  00000+0  00000+0 0  9993
2 43491   3.0207  79.1197 0001896 134.7600 356.1279  1.00269974 29400
BEIDOU-2 IGSO-7         
1 43539U 18057A   26164.60507657  .00000012  00000+0  00000+0 0  9991
2 43539  55.1943 163.0896 0104898 237.9333 188.9568  1.00252108 29090
TELSTAR 19V             
1 43562U 18059A   26164.53555345 -.00000268  00000+0  00000+0 0  9992
2 43562   0.0196 160.7629 0002280 302.4292 288.4543  1.00269282 29109
TELKOM 4 (MERAH PUTIH)  
1 43587U 18064A   26164.64262145 -.00000333  00000+0  00000+0 0  9993
2 43587   0.0155  35.9148 0001228  75.9621 129.4219  1.00271010 28845
TELSTAR 18V             
1 43611U 18069A   26164.57536691 -.00000283  00000+0  00000+0 0  9992
2 43611   0.0145 316.3524 0001585 124.7152 165.9453  1.00268553 28601
